     2.100          NAVIGATION                              RINEX VERSION / TYPE
fic2rin                                 07/20/2012 00:22:59 PGM / RUN BY / DATE
                                                            END OF HEADER
 9 12  7 19 20  0  0.0  .172824133188D-03  .250111042988D-11  .000000000000D+00
     .700000000000D+01  .115593750000D+03  .411052836286D-08 -.117294031111D+01
     .636838376522D-05  .174934953684D-01  .633113086224D-05  .515361655235D+04
     .417600000000D+06 -.270083546638D-06  .102287073522D+01  .264495611191D-06
     .984546169980D+00  .278187500000D+03  .163641760775D+01 -.813855328913D-08
     .448947271884D-09  .100000000000D+01  .169700000000D+04  .000000000000D+00
     .240000000000D+01  .000000000000D+00 -.558793544769D-08  .700000000000D+01
     .410406000000D+06  .400000000000D+01
10 12  7 19 20  0  0.0 -.453451648355D-04 -.136424205266D-11  .000000000000D+00
     .300000000000D+02 -.276250000000D+02  .511199864955D-08 -.303325929664D+01
    -.143982470036D-05  .113822304411D-01  .522099435329D-05  .515370107079D+04
     .417600000000D+06  .279396772385D-07 -.104191481699D+01 -.931322574615D-07
     .945120350731D+00  .270156250000D+03  .752635268909D+00 -.816462580372D-08
    -.318227541169D-09  .100000000000D+01  .169700000000D+04  .000000000000D+00
     .340000000000D+01  .000000000000D+00 -.232830643654D-08  .300000000000D+02
     .410406000000D+06  .400000000000D+01
11 12  7 19 20  0  0.0 -.283419154584D-03 -.397903932026D-11  .000000000000D+00
     .610000000000D+02  .320312500000D+02  .633990693971D-08 -.375185914445D+00
     .175274908543D-05  .131370044546D-01  .938959419727D-05  .515367784500D+04
     .417600000000D+06 -.689178705215D-07 -.238625528136D+01  .184401869774D-06
     .888280633460D+00  .157781250000D+03  .106324378807D+01 -.906966350218D-08
     .464305054455D-09  .100000000000D+01  .169700000000D+04  .000000000000D+00
     .240000000000D+01  .000000000000D+00 -.116415321827D-07  .610000000000D+02
     .410406000000D+06  .400000000000D+01
12 12  7 19 20  0  0.0  .808145850897D-04  .204636307899D-11  .000000000000D+00
     .370000000000D+02 -.636250000000D+02  .453840332843D-08 -.840672088727D+00
    -.328943133354D-05  .406519253738D-02  .164471566677D-05  .515375531197D+04
     .417600000000D+06  .968575477600D-07  .210544780202D+01 -.316649675369D-07
     .980302701062D+00  .359062500000D+03  .116079462833D+00 -.830284584686D-08
    -.115004790411D-09  .100000000000D+01  .169700000000D+04  .000000000000D+00
     .240000000000D+01  .000000000000D+00 -.121071934700D-07  .370000000000D+02
     .410406000000D+06  .400000000000D+01
13 12  7 19 20  0  0.0  .193571206182D-03 -.250111042988D-11  .000000000000D+00
     .790000000000D+02  .577812500000D+02  .348728811669D-08  .174556302029D+01
     .299513339996D-05  .493853306398D-02  .121425837278D-04  .515364788628D+04
     .417600000000D+06  .132247805595D-06  .786971046103D-01  .167638063431D-07
     .985556206658D+00  .156375000000D+03  .204984719977D+01 -.738459331224D-08
    -.221437795202D-09  .100000000000D+01  .169700000000D+04  .000000000000D+00
     .240000000000D+01  .000000000000D+00 -.111758708954D-07  .790000000000D+02
     .410406000000D+06  .400000000000D+01
14 12  7 19 20  0  0.0  .207385513932D-03  .125055521494D-11  .000000000000D+00
     .580000000000D+02  .428437500000D+02  .365372362083D-08  .199334440277D+01
     .232085585594D-05  .656758260448D-02  .116899609566D-04  .515362217522D+04
     .417600000000D+06 -.614672899246D-07  .516494038850D-01 -.147148966789D-06
     .978359975111D+00  .161312500000D+03 -.207039692853D+01 -.752709924818D-08
    -.184293390845D-09  .100000000000D+01  .169700000000D+04  .000000000000D+00
     .240000000000D+01  .000000000000D+00 -.884756445885D-08  .580000000000D+02
     .410406000000D+06  .400000000000D+01
16 12  7 19 20  0  0.0 -.241518951952D-03 -.102318153949D-11  .000000000000D+00
     .530000000000D+02 -.806562500000D+02  .442089843388D-08 -.308519731231D+01
    -.409409403801D-05  .659251154866D-02  .253133475780D-05  .515370905495D+04
     .417600000000D+06 -.130385160446D-06  .212364065418D+01 -.260770320892D-07
     .981125868973D+00  .343125000000D+03  .196304676078D-01 -.810140888477D-08
    -.204294223960D-09  .100000000000D+01  .169700000000D+04  .000000000000D+00
     .240000000000D+01  .000000000000D+00 -.977888703346D-08  .530000000000D+02
     .410406000000D+06  .400000000000D+01
17 12  7 19 20  0  0.0  .112025998533D-03 -.306954461848D-11  .000000000000D+00
     .450000000000D+02 -.103687500000D+03  .415445876417D-08  .227035138040D+01
    -.544264912605D-05  .741576182190D-02  .117495656013D-04  .515372239876D+04
     .417600000000D+06 -.875443220139D-07 -.311973520481D+01 -.143423676491D-06
     .963754294635D+00  .154468750000D+03 -.229451753774D+01 -.771210695450D-08
    -.421446126351D-10  .100000000000D+01  .169700000000D+04  .000000000000D+00
     .240000000000D+01  .000000000000D+00 -.107102096081D-07  .450000000000D+02
     .410406000000D+06  .400000000000D+01
19 12  7 19 20  0  0.0 -.286231748760D-03 -.363797880709D-11  .000000000000D+00
     .170000000000D+02 -.778750000000D+02  .435268130665D-08  .144288748162D+01
    -.373460352421D-05  .852006650530D-02  .118091702461D-04  .515360993004D+04
     .417600000000D+06  .353902578354D-07 -.306688595355D+01  .134110450745D-06
     .961104414565D+00  .151281250000D+03  .205028850949D+00 -.790532928870D-08
    -.957182727646D-10  .100000000000D+01  .169700000000D+04  .000000000000D+00
     .240000000000D+01  .000000000000D+00 -.144354999065D-07  .170000000000D+02
     .410406000000D+06  .400000000000D+01
20 12  7 19 20  0  0.0  .649774447083D-04  .454747350886D-12  .000000000000D+00
     .920000000000D+02 -.243750000000D+02  .551487257372D-08 -.215329296790D+01
    -.122003257275D-05  .491101772059D-02  .497698783875D-05  .515365715599D+04
     .417600000000D+06  .894069671631D-07 -.110764119105D+01 -.540167093277D-07
     .929401174547D+00  .267812500000D+03  .128565389788D+01 -.844070873226D-08
    -.367158150754D-09  .100000000000D+01  .169700000000D+04  .000000000000D+00
     .340000000000D+01  .000000000000D+00 -.791624188423D-08  .920000000000D+02
     .410406000000D+06  .400000000000D+01
21 12  7 19 20  0  0.0 -.237645115703D-03 -.250111042988D-11  .000000000000D+00
     .500000000000D+01  .396875000000D+02  .520807408005D-08 -.143033214813D+01
     .207498669624D-05  .192716565216D-01  .739656388760D-05  .515358858109D+04
     .417600000000D+06  .452622771263D-06 -.210477042853D+01  .409781932831D-07
     .931228195381D+00  .217968750000D+03 -.223280218369D+01 -.822748556494D-08
     .462162108050D-09  .100000000000D+01  .169700000000D+04  .000000000000D+00
     .240000000000D+01  .000000000000D+00 -.111758708954D-07  .500000000000D+01
     .410406000000D+06  .400000000000D+01
22 12  7 19 20  0  0.0  .145695172250D-03  .454747350886D-12  .000000000000D+00
     .186000000000D+03 -.291250000000D+02  .551772983560D-08  .294508012611D+01
    -.154227018356D-05  .629524292890D-02  .500492751598D-05  .515366933441D+04
     .417600000000D+06  .260770320892D-07 -.105066527903D+01 -.633299350739D-07
     .926650448219D+00  .264343750000D+03 -.201164372026D+01 -.845463788389D-08
    -.350728894981D-09  .100000000000D+01  .169700000000D+04  .000000000000D+00
     .340000000000D+01  .000000000000D+00 -.167638063431D-07  .186000000000D+03
     .410406000000D+06  .400000000000D+01
23 12  7 19 20  0  0.0  .183769036084D-03 -.386535248253D-11  .000000000000D+00
     .110000000000D+02  .434375000000D+02  .414517266308D-08  .103923525431D+01
     .236928462982D-05  .814008805901D-02  .117439776659D-04  .515361219597D+04
     .417600000000D+06 -.242143869400D-07 -.136181727373D-02  .178813934326D-06
     .959907228240D+00  .152812500000D+03 -.297536948799D+01 -.773925094229D-08
    -.376801409577D-09  .100000000000D+01  .169700000000D+04  .000000000000D+00
     .240000000000D+01  .000000000000D+00 -.200234353542D-07  .110000000000D+02
     .410406000000D+06  .400000000000D+01
25 12  7 19 20  0  0.0  .376305542886D-04  .795807864051D-12  .000000000000D+00
     .340000000000D+02 -.641250000000D+02  .472626829662D-08 -.206345215504D+01
    -.336952507496D-05  .181442650501D-02  .150315463543D-05  .515368545532D+04
     .417600000000D+06  .856816768646D-07  .207074880421D+01 -.372529029846D-08
     .969133263010D+00  .355250000000D+03  .757358193134D+00 -.840963600938D-08
    -.102504269714D-09  .100000000000D+01  .169700000000D+04  .000000000000D+00
     .240000000000D+01  .000000000000D+00  .558793544769D-08  .340000000000D+02
     .410406000000D+06  .400000000000D+01
26 12  7 19 20  0  0.0 -.341501552612D-03  .113686837722D-10  .000000000000D+00
     .200000000000D+02  .334062500000D+02  .367265298074D-08  .897352029011D+00
     .178068876266D-05  .207938853418D-01  .126324594021D-04  .515367432213D+04
     .417600000000D+06 -.301748514175D-06  .724581437497D-01 -.298023223877D-07
     .983076257689D+00  .150937500000D+03  .120341093293D+01 -.786389899153D-08
    -.406088343781D-09  .100000000000D+01  .169700000000D+04  .000000000000D+00
     .240000000000D+01  .000000000000D+00 -.605359673500D-08  .200000000000D+02
     .410406000000D+06  .400000000000D+01
27 12  7 19 20  0  0.0  .410972163081D-03  .409272615798D-11  .000000000000D+00
     .550000000000D+02  .114312500000D+03  .403766818509D-08  .174747974726D+01
     .578723847866D-05  .217388237361D-01  .566616654396D-05  .515370809746D+04
     .417600000000D+06  .383704900742D-06  .995864370708D+00 -.558793544769D-08
     .982007723306D+00  .276218750000D+03 -.105873578846D+01 -.769996359153D-08
     .283226083217D-09  .100000000000D+01  .169700000000D+04  .000000000000D+00
     .240000000000D+01  .000000000000D+00 -.419095158577D-08  .550000000000D+02
     .410406000000D+06  .400000000000D+01
